OBJECT_NAME,OBJECT_ID,EPOCH,MEAN_MOTION,ECCENTRICITY,INCLINATION,RA_OF_ASC_NODE,ARG_OF_PERICENTER,MEAN_ANOMALY,EPHEMERIS_TYPE,CLASSIFICATION_TYPE,NORAD_CAT_ID,ELEMENT_SET_NO,REV_AT_EPOCH,BSTAR,MEAN_MOTION_DOT,MEAN_MOTION_DDOT
IONOSFERA-M 4,2025-155B,2026-06-26T03:35:27.586176,14.21490255,.0001365,98.6026,138.7464,116.4122,243.7196,0,U,64877,999,4767,.40197E-4,.45E-6,0
MICROCARB,2025-156A,2026-06-26T04:30:45.616608,14.72532109,.0015438,97.9923,254.1700,237.4482,122.5234,0,U,64899,999,4929,.90083E-4,.523E-5,0
CO3D 3,2025-156B,2026-06-26T03:20:55.468032,15.20195357,.0001734,97.4332,255.7039,116.6276,243.5137,0,U,64900,999,5089,.21859E-3,.4666E-4,0
CO3D 4,2025-156C,2026-06-26T03:21:08.637120,15.20197122,.0000356,97.4334,255.7040,186.9035,173.2195,0,U,64901,999,5089,.23518E-3,.5026E-4,0
CO3D 2,2025-156D,2026-06-26T04:07:54.825312,15.20202227,.0001502,97.4334,255.6346,100.5361,259.6043,0,U,64902,999,5089,.24189E-3,.5173E-4,0
CO3D 1,2025-156E,2026-06-26T04:08:07.703232,15.20196213,.0001365,97.4333,255.6348,107.8273,252.3112,0,U,64903,999,5089,.24977E-3,.5342E-4,0
PRSC-S1,2025-164A,2026-06-26T03:32:30.153408,15.06522613,.0005274,41.1297,237.3451,48.0980,312.0283,0,U,65055,999,4978,.27528E-3,.3966E-4,0
SENTINEL-6B,2025-264A,2026-06-26T03:25:24.083904,12.80930000,.000797,66.0408,116.5782,269.0267,90.9835,0,U,66514,999,2831,-.47773E-4,-.72E-6,0
CAS500-3,2025-274F,2026-06-25T18:05:07.336032,14.88340069,.0006961,97.7445,104.6098,88.4949,271.7065,0,U,66655,999,3142,.1393E-3,.1236E-4,0
CSG-3,2026-001A,2026-06-26T02:39:00.334656,14.82159349,.000145,97.8888,0.5829,96.2612,263.8766,0,U,67304,999,2578,.44646E-4,.303E-5,0
PRSC-E03,2026-092A,2026-06-26T01:39:25.006752,15.06712084,.0002662,38.0020,37.3045,93.7021,266.4045,0,U,68835,999,929,.19962E-3,.2915E-4,0
CAS500-2,2026-100AK,2026-06-26T04:00:57.425184,15.20690293,.0009627,97.3907,74.8621,6.3541,353.7815,0,U,69013,999,817,.33353E-3,.7271E-4,0
