IONOSFERA-M 4           
1 64877U 25155B   26177.14962484  .00000045  00000+0  40197-4 0  9994
2 64877  98.6026 138.7464 0001365 116.4122 243.7196 14.21490255 47679
MICROCARB               
1 64899U 25156A   26177.18802797  .00000523  00000+0  90083-4 0  9993
2 64899  97.9923 254.1700 0015438 237.4482 122.5234 14.72532109 49294
CO3D 3                  
1 64900U 25156B   26177.13953088  .00004666  00000+0  21859-3 0  9997
2 64900  97.4332 255.7039 0001734 116.6276 243.5137 15.20195357 50899
CO3D 4                  
1 64901U 25156C   26177.13968330  .00005026  00000+0  23518-3 0  9999
2 64901  97.4334 255.7040 0000356 186.9035 173.2195 15.20197122 50891
CO3D 2                  
1 64902U 25156D   26177.17216233  .00005173  00000+0  24189-3 0  9990
2 64902  97.4334 255.6346 0001502 100.5361 259.6043 15.20202227 50892
CO3D 1                  
1 64903U 25156E   26177.17231138  .00005342  00000+0  24977-3 0  9995
2 64903  97.4333 255.6348 0001365 107.8273 252.3112 15.20196213 50897
PRSC-S1                 
1 65055U 25164A   26177.14757122  .00003966  00000+0  27528-3 0  9991
2 65055  41.1297 237.3451 0005274  48.0980 312.0283 15.06522613 49787
SENTINEL-6B             
1 66514U 25264A   26177.14263986 -.00000072  00000+0 -47773-4 0  9995
2 66514  66.0408 116.5782 0007970 269.0267  90.9835 12.80930000 28314
CAS500-3                
1 66655U 25274F   26176.75355713  .00001236  00000+0  13930-3 0  9996
2 66655  97.7445 104.6098 0006961  88.4949 271.7065 14.88340069 31429
CSG-3                   
1 67304U 26001A   26177.11042054  .00000303  00000+0  44646-4 0  9992
2 67304  97.8888   0.5829 0001450  96.2612 263.8766 14.82159349 25786
PRSC-E03                
1 68835U 26092A   26177.06903943  .00002915  00000+0  19962-3 0  9992
2 68835  38.0020  37.3045 0002662  93.7021 266.4045 15.06712084  9296
CAS500-2                
1 69013U 26100AK  26177.16733131  .00007271  00000+0  33353-3 0  9992
2 69013  97.3907  74.8621 0009627   6.3541 353.7815 15.20690293  8172
